NORAD_CAT_ID,OBJECT_NAME,OBJECT_TYPE,EPOCH,MEAN_MOTION,ECCENTRICITY,INCLINATION,RA_OF_ASC_NODE,ARG_OF_PERICENTER,MEAN_ANOMALY,BSTAR,MEAN_MOTION_DOT,MEAN_MOTION_DDOT,TLE_LINE0,TLE_LINE1,TLE_LINE2,SEMIMAJOR_AXIS,PERIOD,APOGEE,PERIGEE,DECAYED
52688.0,STARLINK-4032,PAYLOAD,2023-05-05 02:00:01,15.08846717,0.0001744,53.2149,130.9791,90.4969,267.972,-0.00074494,-0.00012127,0.0,0 STARLINK-4032,1 52688U 22053AJ  23125.08334491 -.00012127  00000-0 -74494-3 0  9992,2 52688  53.2149 130.9791 0001744  90.4969 267.9720 15.08846717 53804,6917.86,95.437,540.931,538.518,0.0
52688.0,STARLINK-4032,PAYLOAD,2023-05-05 22:00:00,15.08817536,0.0001734,53.2151,127.2373,92.2862,115.1698,0.0024362,0.00038674,0.0,0 STARLINK-4032,1 52688U 22053AJ  23125.91667824  .00038674  00000-0  24362-2 0  9994,2 52688  53.2151 127.2373 0001734  92.2862 115.1698 15.08817536  1306,6917.949,95.439,541.014,538.614,0.0
52688.0,STARLINK-4032,PAYLOAD,2023-05-06 08:00:01,15.08841379,0.0001802,53.2155,125.3686,86.4218,225.5288,-0.0011828,-0.00019064,0.0,0 STARLINK-4032,1 52688U 22053AJ  23126.33334491 -.00019064  00000-0 -11828-2 0  9999,2 52688  53.2155 125.3686 0001802  86.4218 225.5288 15.08841379 53997,6917.876,95.437,540.988,538.495,0.0
52688.0,STARLINK-4032,PAYLOAD,2023-05-06 16:00:00,15.08845572,0.0001725,53.2155,123.8713,90.097,233.4401,-0.0020595,-0.00032921,0.0,0 STARLINK-4032,1 52688U 22053AJ  23126.66667824 -.00032921  00000-0 -20595-2 0  9992,2 52688  53.2155 123.8713 0001725  90.0970 233.4401 15.08845572  1303,6917.863,95.437,540.922,538.535,0.0
52688.0,STARLINK-4032,PAYLOAD,2023-05-07 00:06:43,15.08742611,0.0002523,53.2154,122.3545,94.0403,266.0877,0.0029953,0.00047578,0.0,0 STARLINK-4032,1 52688U 22053AJ  23127.00466467  .00047578  00000-0  29953-2 0  9990,2 52688  53.2154 122.3545 0002523  94.0403 266.0877 15.08742611 54094,6918.178,95.444,541.789,538.298,0.0
52688.0,STARLINK-4032,PAYLOAD,2023-05-07 12:49:43,15.088371,0.0001661,53.2158,119.9753,100.9163,259.2016,5.8739e-05,6.47e-06,0.0,0 STARLINK-4032,1 52688U 22053AJ  23127.53453011  .00000647  00000-0  58739-4 0  9991,2 52688  53.2158 119.9753 0001661 100.9163 259.2016 15.08837100 54179,6917.889,95.438,540.903,538.605,0.0
52688.0,STARLINK-4032,PAYLOAD,2023-05-07 22:00:00,15.08811783,0.0001605,53.2162,118.2589,100.0917,176.9201,0.0026074,0.00041421,0.0,0 STARLINK-4032,1 52688U 22053AJ  23127.91667824  .00041421  00000-0  26074-2 0  9992,2 52688  53.2162 118.2589 0001605 100.0917 176.9201 15.08811783  1306,6917.967,95.439,540.942,538.721,0.0
52688.0,STARLINK-4032,PAYLOAD,2023-05-08 04:43:35,15.0883287,0.000163,53.2164,117.0017,94.5063,265.6115,2.3258e-05,8.2e-07,0.0,0 STARLINK-4032,1 52688U 22053AJ  23128.19693696  .00000082  00000-0  23258-4 0  9990,2 52688  53.2164 117.0017 0001630  94.5063 265.6115 15.08832870 54272,6917.902,95.438,540.895,538.64,0.0
52688.0,STARLINK-4032,PAYLOAD,2023-05-08 15:51:17,15.08837669,0.0001599,53.2166,114.9207,93.9064,266.2111,6.312e-05,7.17e-06,0.0,0 STARLINK-4032,1 52688U 22053AJ  23128.66061437  .00000717  00000-0  63120-4 0  9991,2 52688  53.2166 114.9207 0001599  93.9064 266.2111 15.08837669 54712,6917.888,95.438,540.859,538.646,0.0
52688.0,STARLINK-4032,PAYLOAD,2023-05-09 04:34:22,15.08838666,0.0001608,53.2159,112.5417,95.0086,265.109,8.489e-05,1.063e-05,0.0,0 STARLINK-4032,1 52688U 22053AJ  23129.19053340  .00001063  00000-0  84890-4 0  9996,2 52688  53.2159 112.5417 0001608  95.0086 265.1090 15.08838666 54429,6917.884,95.438,540.862,538.637,0.0
52688.0,STARLINK-4032,PAYLOAD,2023-05-09 06:09:45,15.08840326,0.000159,53.216,112.2445,95.8561,264.2612,0.00011103,1.479e-05,0.0,0 STARLINK-4032,1 52688U 22053AJ  23129.25677273  .00001479  00000-0  11103-3 0  9997,2 52688  53.2160 112.2445 0001590  95.8561 264.2612 15.08840326 54803,6917.879,95.438,540.844,538.644,0.0
52688.0,STARLINK-4032,PAYLOAD,2023-05-10 06:00:33,15.08823232,0.0001614,53.2162,107.7848,98.0671,262.0504,-5.9917e-05,-1.241e-05,0.0,0 STARLINK-4032,1 52688U 22053AJ  23130.25038880 -.00001241  00000-0 -59917-4 0  9999,2 52688  53.2162 107.7848 0001614  98.0671 262.0504 15.08823232 54954,6917.932,95.439,540.913,538.68,0.0
52688.0,STARLINK-4032,PAYLOAD,2023-05-10 15:32:52,15.08831269,0.0001628,53.2164,106.0007,98.4505,261.6672,7.5729e-05,9.17e-06,0.0,0 STARLINK-4032,1 52688U 22053AJ  23130.64782883  .00000917  00000-0  75729-4 0  9997,2 52688  53.2164 106.0007 0001628  98.4505 261.6672 15.08831269 55018,6917.907,95.438,540.898,538.646,0.0
52688.0,STARLINK-4032,PAYLOAD,2023-05-11 05:51:20,15.08841998,0.0001782,53.2169,103.3258,105.444,254.6749,0.00049715,7.633e-05,0.0,0 STARLINK-4032,1 52688U 22053AJ  23131.24398898  .00007633  00000-0  49715-3 0  9990,2 52688  53.2169 103.3258 0001782 105.4440 254.6749 15.08841998 55106,6917.874,95.437,540.972,538.507,0.0
52688.0,STARLINK-4032,PAYLOAD,2023-05-12 04:06:44,15.08847885,0.0001567,53.2161,99.1613,98.4124,261.7046,0.000379,5.75e-05,0.0,0 STARLINK-4032,1 52688U 22053AJ  23132.17134757  .00005750  00000-0  37900-3 0  9996,2 52688  53.2161  99.1613 0001567  98.4124 261.7046 15.08847885 55241,6917.856,95.437,540.805,538.637,0.0
52688.0,STARLINK-4032,PAYLOAD,2023-05-12 15:14:26,15.0885288,0.0001531,53.2156,97.0784,99.4363,260.6802,0.00035881,5.429e-05,0.0,0 STARLINK-4032,1 52688U 22053AJ  23132.63502407  .00005429  00000-0  35881-3 0  9997,2 52688  53.2156  97.0784 0001531  99.4363 260.6802 15.08852880 54943,6917.841,95.437,540.765,538.647,0.0
52688.0,STARLINK-4032,PAYLOAD,2023-05-13 03:57:30,15.08855395,0.0001548,53.216,94.7005,94.2648,265.8521,0.00024838,3.669e-05,0.0,0 STARLINK-4032,1 52688U 22053AJ  23133.16493924  .00003669  00000-0  24838-3 0  9993,2 52688  53.2160  94.7005 0001548  94.2648 265.8521 15.08855395 55394,6917.833,95.437,540.769,538.627,0.0
52688.0,STARLINK-4032,PAYLOAD,2023-05-14 02:12:54,15.0884388,0.000146,53.2168,90.5354,102.763,257.3525,6.6768e-05,7.75e-06,0.0,0 STARLINK-4032,1 52688U 22053AJ  23134.09230139  .00000775  00000-0  66768-4 0  9997,2 52688  53.2168  90.5354 0001460 102.7630 257.3525 15.08843880 55163,6917.869,95.437,540.744,538.724,0.0
52688.0,STARLINK-4032,PAYLOAD,2023-05-15 03:39:04,15.08852889,0.000132,53.2171,85.7791,96.6947,263.4196,0.00018812,2.708e-05,0.0,0 STARLINK-4032,1 52688U 22053AJ  23135.15213440  .00002708  00000-0  18812-3 0  9995,2 52688  53.2171  85.7791 0001320  96.6947 263.4196 15.08852889 55324,6917.841,95.437,540.619,538.793,0.0
52688.0,STARLINK-4032,PAYLOAD,2023-05-15 13:11:23,15.08846049,0.0001194,53.2169,83.9983,103.7908,256.3217,0.00010083,1.317e-05,0.0,0 STARLINK-4032,1 52688U 22053AJ  23135.54957622  .00001317  00000-0  10083-3 0  9992,2 52688  53.2169  83.9983 0001194 103.7908 256.3217 15.08846049 55382,6917.862,95.437,540.553,538.901,0.0
52688.0,STARLINK-4032,PAYLOAD,2023-05-16 03:29:52,15.08822044,0.0001772,53.2186,81.3299,127.5626,232.5527,0.00033672,5.072e-05,0.0,0 STARLINK-4032,1 52688U 22053AJ  23136.14575037  .00005072  00000-0  33672-3 0  9996,2 52688  53.2186  81.3299 0001772 127.5626 232.5527 15.08822044 55475,6917.935,95.439,541.026,538.574,0.0
52688.0,STARLINK-4032,PAYLOAD,2023-05-17 03:20:38,15.08846122,0.0001306,53.2183,76.8617,101.2793,258.8346,8.6728e-05,1.093e-05,0.0,0 STARLINK-4032,1 52688U 22053AJ  23137.13933842  .00001093  00000-0  86728-4 0  9998,2 52688  53.2183  76.8617 0001306 101.2793 258.8346 15.08846122 55622,6917.862,95.437,540.63,538.823,0.0
52688.0,STARLINK-4032,PAYLOAD,2023-05-17 06:31:24,15.08848575,0.0001308,53.2181,76.2626,94.6594,265.4547,0.00013571,1.873e-05,0.0,0 STARLINK-4032,1 52688U 22053AJ  23137.27181689  .00001873  00000-0  13571-3 0  9998,2 52688  53.2181  76.2626 0001308  94.6594 265.4547 15.08848575 56015,6917.854,95.437,540.624,538.814,0.0
52688.0,STARLINK-4032,PAYLOAD,2023-05-18 01:36:03,15.08837375,0.0001357,53.2182,72.6894,69.2844,290.8293,8.6435e-05,1.088e-05,0.0,0 STARLINK-4032,1 52688U 22053AJ  23138.06670562  .00001088  00000-0  86435-4 0  9997,2 52688  53.2182  72.6894 0001357  69.2844 290.8293 15.08837375 55760,6917.888,95.438,540.692,538.815,0.0
52688.0,STARLINK-4032,PAYLOAD,2023-05-18 04:46:49,15.08837038,0.0001292,53.2186,72.0965,87.8308,272.2832,7.5053e-05,9.07e-06,0.0,0 STARLINK-4032,1 52688U 22053AJ  23138.19918534  .00000907  00000-0  75053-4 0  9998,2 52688  53.2186  72.0965 0001292  87.8308 272.2832 15.08837038 56159,6917.889,95.438,540.648,538.861,0.0
52688.0,STARLINK-4032,PAYLOAD,2023-05-19 04:37:36,15.08849583,0.0001177,53.2183,67.638,95.3551,264.7575,0.00012891,1.765e-05,0.0,0 STARLINK-4032,1 52688U 22053AJ  23139.19277901  .00001765  00000-0  12891-3 0  9998,2 52688  53.2183  67.6380 0001177  95.3551 264.7575 15.08849583 55936,6917.851,95.437,540.53,538.902,0.0
52688.0,STARLINK-4032,PAYLOAD,2023-05-20 01:17:37,15.08843032,0.0001268,53.2177,63.7735,95.4223,264.6914,0.00013122,1.801e-05,0.0,0 STARLINK-4032,1 52688U 22053AJ  23140.05390330  .00001801  00000-0  13122-3 0  9996,2 52688  53.2177  63.7735 0001268  95.4223 264.6914 15.08843032 56062,6917.871,95.437,540.613,538.859,0.0
52688.0,STARLINK-4032,PAYLOAD,2023-05-21 04:19:09,15.08862681,0.0001327,53.2171,58.7198,88.7631,271.3513,0.00043648,6.67e-05,0.0,0 STARLINK-4032,1 52688U 22053AJ  23141.17997201  .00006670  00000-0  43648-3 0  9995,2 52688  53.2171  58.7198 0001327  88.7631 271.3513 15.08862681 56237,6917.811,95.436,540.594,538.758,0.0
52688.0,STARLINK-4032,PAYLOAD,2023-05-22 04:09:58,15.08830136,0.0001342,53.2177,54.2597,100.1974,259.9169,-7.281e-05,-1.446e-05,0.0,0 STARLINK-4032,1 52688U 22053AJ  23142.17358968 -.00001446  00000-0 -72810-4 0  9999,2 52688  53.2177  54.2597 0001342 100.1974 259.9169 15.08830136 56388,6917.911,95.438,540.704,538.847,0.0
52688.0,STARLINK-4032,PAYLOAD,2023-05-23 00:49:58,15.08853154,0.0001297,53.2173,50.3964,103.4749,256.6387,0.00058795,9.085e-05,0.0,0 STARLINK-4032,1 52688U 22053AJ  23143.03470514  .00009085  00000-0  58795-3 0  9997,2 52688  53.2173  50.3964 0001297 103.4749 256.6387 15.08853154 56510,6917.84,95.437,540.602,538.808,0.0
